NORAD_CAT_ID,OBJECT_NAME,OBJECT_TYPE,EPOCH,MEAN_MOTION,ECCENTRICITY,INCLINATION,RA_OF_ASC_NODE,ARG_OF_PERICENTER,MEAN_ANOMALY,BSTAR,MEAN_MOTION_DOT,MEAN_MOTION_DDOT,TLE_LINE0,TLE_LINE1,TLE_LINE2,SEMIMAJOR_AXIS,PERIOD,APOGEE,PERIGEE,DECAYED
53592.0,STARLINK-4672,PAYLOAD,2023-10-27 14:14:14,15.08839981,0.0001708,53.2155,163.3434,92.9245,267.1943,5.2022e-05,5.4e-06,0.0,0 STARLINK-4672,1 53592U 22104E   23300.59322467  .00000540  00000-0  52022-4 0  9993,2 53592  53.2155 163.3434 0001708  92.9245 267.1943 15.08839981 65496,6917.88,95.438,540.927,538.564,0.0
53592.0,STARLINK-4672,PAYLOAD,2023-10-27 20:35:47,15.08839478,0.0001679,53.2158,162.1552,97.302,262.8163,2.8852e-05,1.71e-06,0.0,0 STARLINK-4672,1 53592U 22104E   23300.85818497  .00000171  00000-0  28852-4 0  9999,2 53592  53.2158 162.1552 0001679  97.3020 262.8163 15.08839478 64513,6917.882,95.438,540.908,538.585,0.0
53592.0,STARLINK-4672,PAYLOAD,2023-10-27 22:11:10,15.08840771,0.0001715,53.2159,161.8569,95.8516,264.2671,5.1986e-05,5.39e-06,0.0,0 STARLINK-4672,1 53592U 22104E   23300.92442453  .00000539  00000-0  51986-4 0  9994,2 53592  53.2159 161.8569 0001715  95.8516 264.2671 15.08840771 65544,6917.878,95.438,540.929,538.557,0.0
53592.0,STARLINK-4672,PAYLOAD,2023-10-28 07:43:29,15.08839056,0.0001396,53.2139,160.0695,86.1674,273.9478,3.341e-05,2.44e-06,0.0,0 STARLINK-4672,1 53592U 22104E   23301.32186497  .00000244  00000-0  33410-4 0  9997,2 53592  53.2139 160.0695 0001396  86.1674 273.9478 15.08839056 65609,6917.883,95.438,540.714,538.783,0.0
53592.0,STARLINK-4672,PAYLOAD,2023-10-28 20:26:34,15.08834041,0.0001801,53.2164,157.6928,91.7606,268.3592,-0.00010684,-1.988e-05,0.0,0 STARLINK-4672,1 53592U 22104E   23301.85179122 -.00001988  00000-0 -10684-3 0  9997,2 53592  53.2164 157.6928 0001801  91.7606 268.3592 15.08834041 64665,6917.899,95.438,541.01,538.518,0.0
53592.0,STARLINK-4672,PAYLOAD,2023-10-28 22:01:57,15.08835141,0.0001702,53.2162,157.3968,92.8957,267.223,-6.2259e-05,-1.279e-05,0.0,0 STARLINK-4672,1 53592U 22104E   23301.91803105 -.00001279  00000-0 -62259-4 0  9998,2 53592  53.2162 157.3968 0001702  92.8957 267.2230 15.08835141 65698,6917.895,95.438,540.938,538.583,0.0
53592.0,STARLINK-4672,PAYLOAD,2023-10-29 07:34:16,15.08842157,0.000173,53.2164,155.6123,90.6311,269.488,6.8995e-05,8.1e-06,0.0,0 STARLINK-4672,1 53592U 22104E   23302.31546919  .00000810  00000-0  68995-4 0  9991,2 53592  53.2164 155.6123 0001730  90.6311 269.4880 15.08842157 64739,6917.874,95.437,540.936,538.542,0.0
53592.0,STARLINK-4672,PAYLOAD,2023-10-29 21:52:44,15.08846504,0.0001653,53.2164,152.9339,101.8194,258.2984,0.00021382,3.117e-05,0.0,0 STARLINK-4672,1 53592U 22104E   23302.91162693  .00003117  00000-0  21382-3 0  9991,2 53592  53.2164 152.9339 0001653 101.8194 258.2984 15.08846504 65840,6917.861,95.437,540.869,538.582,0.0
53592.0,STARLINK-4672,PAYLOAD,2023-10-29 23:28:07,15.08850075,0.0001573,53.2161,152.6358,103.3373,256.7795,0.00026061,3.863e-05,0.0,0 STARLINK-4672,1 53592U 22104E   23302.97786468  .00003863  00000-0  26061-3 0  9996,2 53592  53.2161 152.6358 0001573 103.3373 256.7795 15.08850075 64831,6917.85,95.437,540.803,538.626,0.0
53592.0,STARLINK-4672,PAYLOAD,2023-10-31 07:15:51,15.08838506,0.0001618,53.2161,146.6883,90.8708,269.247,0.00010404,1.368e-05,0.0,0 STARLINK-4672,1 53592U 22104E   23304.30267544  .00001368  00000-0  10404-3 0  9996,2 53592  53.2161 146.6883 0001618  90.8708 269.2470 15.08838506 65036,6917.885,95.438,540.869,538.631,0.0
53592.0,STARLINK-4672,PAYLOAD,2023-10-31 19:58:56,15.08843676,0.0001393,53.2158,144.3094,90.7453,269.3699,0.0006004,9.281e-05,0.0,0 STARLINK-4672,1 53592U 22104E   23304.83259431  .00009281  00000-0  60040-3 0  9993,2 53592  53.2158 144.3094 0001393  90.7453 269.3699 15.08843676 66137,6917.869,95.437,540.698,538.77,0.0
53592.0,STARLINK-4672,PAYLOAD,2023-11-01 19:49:42,15.08843944,0.0001479,53.2167,139.8466,90.6678,269.4484,0.00017503,2.499e-05,0.0,0 STARLINK-4672,1 53592U 22104E   23305.82619137  .00002499  00000-0  17503-3 0  9996,2 53592  53.2167 139.8466 0001479  90.6678 269.4484 15.08843944 65266,6917.868,95.437,540.756,538.71,0.0
53592.0,STARLINK-4672,PAYLOAD,2023-11-02 13:18:57,15.08842175,0.0001489,53.2163,136.5758,88.8048,271.3115,-7.4285e-06,-4.06e-06,0.0,0 STARLINK-4672,1 53592U 22104E   23306.55483099 -.00000406  00000-0 -74285-5 0  9993,2 53592  53.2163 136.5758 0001489  88.8048 271.3115 15.08842175 66394,6917.874,95.437,540.769,538.709,0.0
53592.0,STARLINK-4672,PAYLOAD,2023-11-02 19:40:29,15.08846589,0.0001461,53.2159,135.3877,85.5415,274.5744,6.5104e-05,7.48e-06,0.0,0 STARLINK-4672,1 53592U 22104E   23306.81978800  .00000748  00000-0  65104-4 0  9997,2 53592  53.2159 135.3877 0001461  85.5415 274.5744 15.08846589 66431,6917.86,95.437,540.736,538.715,0.0
53592.0,STARLINK-4672,PAYLOAD,2023-11-03 03:37:26,15.08837873,0.0001507,53.2166,133.9015,89.7196,270.3969,-4.4416e-05,-9.95e-06,0.0,0 STARLINK-4672,1 53592U 22104E   23307.15099573 -.00000995  00000-0 -44416-4 0  9995,2 53592  53.2166 133.9015 0001507  89.7196 270.3969 15.08837873 65461,6917.887,95.438,540.794,538.709,0.0
53592.0,STARLINK-4672,PAYLOAD,2023-11-03 13:09:44,15.08835735,0.0001332,53.216,132.1183,89.2022,270.9122,6.0258e-05,6.71e-06,0.0,0 STARLINK-4672,1 53592U 22104E   23307.54843598  .00000671  00000-0  60258-4 0  9993,2 53592  53.2160 132.1183 0001332  89.2022 270.9122 15.08835735 66543,6917.893,95.438,540.68,538.837,0.0
53592.0,STARLINK-4672,PAYLOAD,2023-11-03 22:42:03,15.08842128,0.000138,53.2158,130.3338,90.2621,269.8529,7.7779e-05,9.5e-06,0.0,0 STARLINK-4672,1 53592U 22104E   23307.94587038  .00000950  00000-0  77779-4 0  9997,2 53592  53.2158 130.3338 0001380  90.2621 269.8529 15.08842128 66601,6917.874,95.437,540.694,538.784,0.0
53592.0,STARLINK-4672,PAYLOAD,2023-11-04 05:03:35,15.08839308,9.9e-05,53.2157,129.1444,91.432,268.6785,5.6876e-05,6.18e-06,0.0,0 STARLINK-4672,1 53592U 22104E   23308.21083102  .00000618  00000-0  56876-4 0  9997,2 53592  53.2157 129.1444 0000990  91.4320 268.6785 15.08839308 65627,6917.883,95.438,540.432,539.063,0.0
53592.0,STARLINK-4672,PAYLOAD,2023-11-04 19:22:04,15.08841236,0.0001343,53.2158,126.4684,93.2925,266.8221,8.5736e-05,1.077e-05,0.0,0 STARLINK-4672,1 53592U 22104E   23308.80699259  .00001077  00000-0  85736-4 0  9995,2 53592  53.2158 126.4684 0001343  93.2925 266.8221 15.08841236 66739,6917.877,95.437,540.671,538.813,0.0
53592.0,STARLINK-4672,PAYLOAD,2023-11-05 04:54:22,15.08844699,0.0001343,53.2158,124.6842,89.5729,270.5417,0.00011883,1.604e-05,0.0,0 STARLINK-4672,1 53592U 22104E   23309.20443132  .00001604  00000-0  11883-3 0  9994,2 53592  53.2158 124.6842 0001343  89.5729 270.5417 15.08844699 66796,6917.866,95.437,540.66,538.802,0.0
53592.0,STARLINK-4672,PAYLOAD,2023-11-05 19:12:51,15.08844259,0.0001416,53.2157,122.0076,86.1614,273.954,0.00016195,2.291e-05,0.0,0 STARLINK-4672,1 53592U 22104E   23309.80059247  .00002291  00000-0  16195-3 0  9994,2 53592  53.2157 122.0076 0001416  86.1614 273.9540 15.08844259 65866,6917.867,95.437,540.712,538.753,0.0
53592.0,STARLINK-4672,PAYLOAD,2023-11-06 11:06:42,15.088502,0.0001466,53.2144,119.0353,79.6127,280.503,0.00025081,3.707e-05,0.0,0 STARLINK-4672,1 53592U 22104E   23310.46298895  .00003707  00000-0  25081-3 0  9999,2 53592  53.2144 119.0353 0001466  79.6127 280.5030 15.08850200 66982,6917.849,95.437,540.728,538.7,0.0
53592.0,STARLINK-4672,PAYLOAD,2023-11-06 19:03:37,15.08854151,0.0001414,53.2148,117.5474,79.0291,281.0861,0.00027618,4.112e-05,0.0,0 STARLINK-4672,1 53592U 22104E   23310.79418574  .00004112  00000-0  27618-3 0  9992,2 53592  53.2148 117.5474 0001414  79.0291 281.0861 15.08854151 67036,6917.837,95.437,540.68,538.724,0.0
53592.0,STARLINK-4672,PAYLOAD,2023-11-07 10:57:29,15.08830204,0.000164,53.2145,114.5733,87.2859,272.832,-0.00013947,-2.506e-05,0.0,0 STARLINK-4672,1 53592U 22104E   23311.45659628 -.00002506  00000-0 -13947-3 0  9990,2 53592  53.2145 114.5733 0001640  87.2859 272.8320 15.08830204 66119,6917.91,95.438,540.91,538.641,0.0
53592.0,STARLINK-4672,PAYLOAD,2023-11-08 13:59:03,15.08841774,0.0001428,53.2161,109.5194,84.7328,275.3827,0.00014348,1.996e-05,0.0,0 STARLINK-4672,1 53592U 22104E   23312.58267865  .00001996  00000-0  14348-3 0  9999,2 53592  53.2161 109.5194 0001428  84.7328 275.3827 15.08841774 67305,6917.875,95.437,540.728,538.752,0.0
53592.0,STARLINK-4672,PAYLOAD,2023-11-08 17:09:49,15.08843691,0.0001351,53.2151,108.9241,85.5656,274.549,0.00032992,4.967e-05,0.0,0 STARLINK-4672,1 53592U 22104E   23312.71515941  .00004967  00000-0  32992-3 0  9991,2 53592  53.2151 108.9241 0001351  85.5656 274.5490 15.08843691 66304,6917.869,95.437,540.669,538.8,0.0
53592.0,STARLINK-4672,PAYLOAD,2023-11-09 10:39:04,15.08844726,0.0001393,53.2158,105.6531,81.42,278.695,0.00040511,6.166e-05,0.0,0 STARLINK-4672,1 53592U 22104E   23313.44380256  .00006166  00000-0  40511-3 0  9990,2 53592  53.2158 105.6531 0001393  81.4200 278.6950 15.08844726 66411,6917.866,95.437,540.695,538.767,0.0
53592.0,STARLINK-4672,PAYLOAD,2023-11-09 13:49:50,15.08845711,0.0001381,53.2161,105.0583,84.5748,275.5401,0.00036125,5.467e-05,0.0,0 STARLINK-4672,1 53592U 22104E   23313.57628183  .00005467  00000-0  36125-3 0  9997,2 53592  53.2161 105.0583 0001381  84.5748 275.5401 15.08845711 67451,6917.863,95.437,540.683,538.773,0.0
53592.0,STARLINK-4672,PAYLOAD,2023-11-09 17:00:36,15.08848257,0.0001355,53.2165,104.4619,88.3119,271.8029,0.00037328,5.659e-05,0.0,0 STARLINK-4672,1 53592U 22104E   23313.70875982  .00005659  00000-0  37328-3 0  9992,2 53592  53.2165 104.4619 0001355  88.3119 271.8029 15.08848257 67478,6917.855,95.437,540.658,538.783,0.0
53592.0,STARLINK-4672,PAYLOAD,2023-11-10 10:29:51,15.08841589,0.0001386,53.2159,101.1915,89.3134,270.8017,6.4894e-05,7.45e-06,0.0,0 STARLINK-4672,1 53592U 22104E   23314.43740088  .00000745  00000-0  64894-4 0  9991,2 53592  53.2159 101.1915 0001386  89.3134 270.8017 15.08841589 66562,6917.876,95.437,540.699,538.782,0.0
